FLOCK 4G-1              
1 62666U 25009BK  26068.75951132  .00013534  00000+0  50654-3 0  9995
2 62666  97.4059 151.3158 0003180 323.1401  36.9619 15.27421081 63725
STARLINK-34169          
1 63999U 25101F   26068.20851524  .00033841  00000+0  12346-2 0  9990
2 63999  43.0053   0.5107 0001919 260.2441  99.8194 15.27555344 46983
